{"type": "FeatureCollection", "features": [ {"type": "Feature", "properties": {"norad_id": 66525, "name": "STARLINK-35975", "group": "last-30-days", "lat": 27.305661855707424, "lon": 57.83144231640387, "alt_km": 440.11732267896514, "timestamp": "2025-12-17T21:39:44.490075+00:00", "meta": {"OBJECT_NAME": "STARLINK-35975", "OBJECT_ID": "2025-265K", "EPOCH": "2025-12-17T14:00:03.000384", "MEAN_MOTION": 15.40652801, "ECCENTRICITY": 0.00010796, "INCLINATION": 43.0009, "RA_OF_ASC_NODE": 26.0295, "ARG_OF_PERICENTER": 273.7772, "MEAN_ANOMALY": 155.8651, "EPHEMERIS_TYPE": 0, "CLASSIFICATION_TYPE": "U", "NORAD_CAT_ID": 66525, "ELEMENT_SET_NO": 999, "REV_AT_EPOCH": 577, "BSTAR": 0.002054116, "MEAN_MOTION_DOT": 0.00086342, "MEAN_MOTION_DDOT": 0}, "tle": {"line1": "1 66525U 25265K   25351.58336806  .00086342  00000+0  20541-2 0  9995", "line2": "2 66525  43.0009  26.0295 0001079 273.7772 155.8651 15.40652801  5770"}}, "geometry": {"type": "Point", "coordinates": [57.83144231640387, 27.305661855707424]}}, {"type": "Feature", "properties": {"norad_id": 66526, "name": "STARLINK-35932", "group": "last-30-days", "lat": 31.753817786057507, "lon": 162.36058293494403, "alt_km": 439.7861731944058, "timestamp": "2025-12-17T21:39:44.490084+00:00", "meta": {"OBJECT_NAME": "STARLINK-35932", "OBJECT_ID": "2025-265L", "EPOCH": "2025-12-17T14:00:03.000384", "MEAN_MOTION": 15.4065171, "ECCENTRICITY": 0.00014563, "INCLINATION": 43.0007, "RA_OF_ASC_NODE": 25.8181, "ARG_OF_PERICENTER": 273.6002, "MEAN_ANOMALY": 243.1321, "EPHEMERIS_TYPE": 0, "CLASSIFICATION_TYPE": "U", "NORAD_CAT_ID": 66526, "ELEMENT_SET_NO": 999, "REV_AT_EPOCH": 566, "BSTAR": 0.0020755508, "MEAN_MOTION_DOT": 0.00087254, "MEAN_MOTION_DDOT": 0}, "tle": {"line1": "1 66526U 25265L   25351.58336806  .00087254  00000+0  20756-2 0  9997", "line2": "2 66526  43.0007  25.8181 0001456 273.6002 243.1321 15.40651710  5665"}}, "geometry": {"type": "Point", "coordinates": [162.36058293494403, 31.753817786057507]}}, {"type": "Feature", "properties": {"norad_id": 66527, "name": "STARLINK-35935", "group": "last-30-days", "lat": -22.53850011236431, "lon": -129.78565309455303, "alt_km": 415.8861694800844, "timestamp": "2025-12-17T21:39:44.490094+00:00", "meta": {"OBJECT_NAME": "STARLINK-35935", "OBJECT_ID": "2025-265M", "EPOCH": "2025-12-17T03:44:20.637024", "MEAN_MOTION": 15.50642505, "ECCENTRICITY": 0.00019557, "INCLINATION": 43.0003, "RA_OF_ASC_NODE": 28.1389, "ARG_OF_PERICENTER": 267.7207, "MEAN_ANOMALY": 92.3429, "EPHEMERIS_TYPE": 0, "CLASSIFICATION_TYPE": "U", "NORAD_CAT_ID": 66527, "ELEMENT_SET_NO": 999, "REV_AT_EPOCH": 444, "BSTAR": 0.0017106119, "MEAN_MOTION_DOT": 0.00101555, "MEAN_MOTION_DDOT": 0}, "tle": {"line1": "1 66527U 25265M   25351.15579441  .00101555  00000+0  17106-2 0  9991", "line2": "2 66527  43.0003  28.1389 0001955 267.7207  92.3429 15.50642505  4444"}}, "geometry": {"type": "Point", "coordinates": [-129.78565309455303, -22.53850011236431]}}, {"type": "Feature", "properties": {"norad_id": 66528, "name": "STARLINK-35928", "group": "last-30-days", "lat": -22.42368742771444, "lon": -129.94677537542125, "alt_km": 416.44118968426665, "timestamp": "2025-12-17T21:39:44.490104+00:00", "meta": {"OBJECT_NAME": "STARLINK-35928", "OBJECT_ID": "2025-265N", "EPOCH": "2025-12-16T16:00:03.999744", "MEAN_MOTION": 15.50522986, "ECCENTRICITY": 0.0001582, "INCLINATION": 43.0011, "RA_OF_ASC_NODE": 31.0004, "ARG_OF_PERICENTER": 273.7707, "MEAN_ANOMALY": 232.9641, "EPHEMERIS_TYPE": 0, "CLASSIFICATION_TYPE": "U", "NORAD_CAT_ID": 66528, "ELEMENT_SET_NO": 999, "REV_AT_EPOCH": 562, "BSTAR": 0.0012241896, "MEAN_MOTION_DOT": 0.00071995, "MEAN_MOTION_DDOT": 0}, "tle": {"line1": "1 66528U 25265N   25350.66671296  .00071995  00000+0  12242-2 0  9998", "line2": "2 66528  43.0011  31.0004 0001582 273.7707 232.9641 15.50522986  5628"}}, "geometry": {"type": "Point", "coordinates": [-129.94677537542125, -22.42368742771444]}}, {"type": "Feature", "properties": {"norad_id": 66529, "name": "STARLINK-35933", "group": "last-30-days", "lat": 3.3128449596753438, "lon": 27.83840995003971, "alt_km": 443.6624669091225, "timestamp": "2025-12-17T21:39:44.490114+00:00", "meta": {"OBJECT_NAME": "STARLINK-35933", "OBJECT_ID": "2025-265P", "EPOCH": "2025-12-17T12:18:21.273408", "MEAN_MOTION": 15.406613, "ECCENTRICITY": 0.0001239, "INCLINATION": 43.0016, "RA_OF_ASC_NODE": 26.5242, "ARG_OF_PERICENTER": 252.9993, "MEAN_ANOMALY": 107.0728, "EPHEMERIS_TYPE": 0, "CLASSIFICATION_TYPE": "U", "NORAD_CAT_ID": 66529, "ELEMENT_SET_NO": 999, "REV_AT_EPOCH": 449, "BSTAR": 0.0010773697, "MEAN_MOTION_DOT": 0.00044908, "MEAN_MOTION_DDOT": 0}, "tle": {"line1": "1 66529U 25265P   25351.51274622  .00044908  00000+0  10774-2 0  9998", "line2": "2 66529  43.0016  26.5242 0001239 252.9993 107.0728 15.40661300  4497"}}, "geometry": {"type": "Point", "coordinates": [27.83840995003971, 3.3128449596753438]}}, {"type": "Feature", "properties": {"norad_id": 66530, "name": "STARLINK-35961", "group": "last-30-days", "lat": 19.847155611818895, "lon": 47.00705782197634, "alt_km": 440.87928082659255, "timestamp": "2025-12-17T21:39:44.490124+00:00", "meta": {"OBJECT_NAME": "STARLINK-35961", "OBJECT_ID": "2025-265Q", "EPOCH": "2025-12-17T12:11:53.028960", "MEAN_MOTION": 15.40685219, "ECCENTRICITY": 7.762e-05, "INCLINATION": 43.0003, "RA_OF_ASC_NODE": 26.4907, "ARG_OF_PERICENTER": 291.5722, "MEAN_ANOMALY": 68.5051, "EPHEMERIS_TYPE": 0, "CLASSIFICATION_TYPE": "U", "NORAD_CAT_ID": 66530, "ELEMENT_SET_NO": 999, "REV_AT_EPOCH": 449, "BSTAR": 0.0012642944, "MEAN_MOTION_DOT": 0.00052849, "MEAN_MOTION_DDOT": 0}, "tle": {"line1": "1 66530U 25265Q   25351.50825265  .00052849  00000+0  12643-2 0  9994", "line2": "2 66530  43.0003  26.4907 0000776 291.5722  68.5051 15.40685219  4491"}}, "geometry": {"type": "Point", "coordinates": [47.00705782197634, 19.847155611818895]}}, {"type": "Feature", "properties": {"norad_id": 66531, "name": "STARLINK-35960", "group": "last-30-days", "lat": 33.826609119591666, "lon": 70.13801982510346, "alt_km": 439.3721412718778, "timestamp": "2025-12-17T21:39:44.490135+00:00", "meta": {"OBJECT_NAME": "STARLINK-35960", "OBJECT_ID": "2025-265R", "EPOCH": "2025-12-17T14:00:03.000384", "MEAN_MOTION": 15.40653003, "ECCENTRICITY": 0.00012484, "INCLINATION": 43.001, "RA_OF_ASC_NODE": 25.9982, "ARG_OF_PERICENTER": 260.8308, "MEAN_ANOMALY": 181.2508, "EPHEMERIS_TYPE": 0, "CLASSIFICATION_TYPE": "U", "NORAD_CAT_ID": 66531, "ELEMENT_SET_NO": 999, "REV_AT_EPOCH": 577, "BSTAR": 0.0020853403, "MEAN_MOTION_DOT": 0.00087676, "MEAN_MOTION_DDOT": 0}, "tle": {"line1": "1 66531U 25265R   25351.58336806  .00087676  00000+0  20853-2 0  9999", "line2": "2 66531  43.0010  25.9982 0001248 260.8308 181.2508 15.40653003  5779"}}, "geometry": {"type": "Point", "coordinates": [70.13801982510346, 33.826609119591666]}}, {"type": "Feature", "properties": {"norad_id": 66532, "name": "STARLINK-35914", "group": "last-30-days", "lat": 42.12593432986563, "lon": 100.14627233636106, "alt_km": 438.30370602762105, "timestamp": "2025-12-17T21:39:44.490145+00:00", "meta": {"OBJECT_NAME": "STARLINK-35914", "OBJECT_ID": "2025-265S", "EPOCH": "2025-12-17T14:00:03.000384", "MEAN_MOTION": 15.40660139, "ECCENTRICITY": 0.00015619, "INCLINATION": 43.0009, "RA_OF_ASC_NODE": 25.938, "ARG_OF_PERICENTER": 268.9219, "MEAN_ANOMALY": 198.0743, "EPHEMERIS_TYPE": 0, "CLASSIFICATION_TYPE": "U", "NORAD_CAT_ID": 66532, "ELEMENT_SET_NO": 999, "REV_AT_EPOCH": 577, "BSTAR": 0.0025178977, "MEAN_MOTION_DOT": 0.0010621, "MEAN_MOTION_DDOT": 0}, "tle": {"line1": "1 66532U 25265S   25351.58336806  .00106210  00000+0  25179-2 0  9992", "line2": "2 66532  43.0009  25.9380 0001561 268.9219 198.0743 15.40660139  5773"}}, "geometry": {"type": "Point", "coordinates": [100.14627233636106, 42.12593432986563]}}, {"type": "Feature", "properties": {"norad_id": 66533, "name": "STARLINK-35707", "group": "last-30-days", "lat": 37.398149663042894, "lon": 148.88351240528883, "alt_km": 438.8816873267988, "timestamp": "2025-12-17T21:39:44.490154+00:00", "meta": {"OBJECT_NAME": "STARLINK-35707", "OBJECT_ID": "2025-265T", "EPOCH": "2025-12-17T14:00:03.000384", "MEAN_MOTION": 15.40650979, "ECCENTRICITY": 0.00012867, "INCLINATION": 43.001, "RA_OF_ASC_NODE": 25.8469, "ARG_OF_PERICENTER": 274.2627, "MEAN_ANOMALY": 230.028, "EPHEMERIS_TYPE": 0, "CLASSIFICATION_TYPE": "U", "NORAD_CAT_ID": 66533, "ELEMENT_SET_NO": 999, "REV_AT_EPOCH": 577, "BSTAR": 0.0020588737, "MEAN_MOTION_DOT": 0.0008654, "MEAN_MOTION_DDOT": 0}, "tle": {"line1": "1 66533U 25265T   25351.58336806  .00086540  00000+0  20589-2 0  9996", "line2": "2 66533  43.0010  25.8469 0001286 274.2627 230.0280 15.40650979  5774"}}, "geometry": {"type": "Point", "coordinates": [148.88351240528883, 37.398149663042894]}}, {"type": "Feature", "properties": {"norad_id": 66534, "name": "STARLINK-35976", "group": "last-30-days", "lat": 8.938315902416349, "lon": -165.83099150558257, "alt_km": 442.9984926547586, "timestamp": "2025-12-17T21:39:44.490164+00:00", "meta": {"OBJECT_NAME": "STARLINK-35976", "OBJECT_ID": "2025-265U", "EPOCH": "2025-12-17T14:00:03.000384", "MEAN_MOTION": 15.40651816, "ECCENTRICITY": 0.00012192, "INCLINATION": 43.0004, "RA_OF_ASC_NODE": 25.7259, "ARG_OF_PERICENTER": 287.103, "MEAN_ANOMALY": 266.9567, "EPHEMERIS_TYPE": 0, "CLASSIFICATION_TYPE": "U", "NORAD_CAT_ID": 66534, "ELEMENT_SET_NO": 999, "REV_AT_EPOCH": 577, "BSTAR": 0.0020322995, "MEAN_MOTION_DOT": 0.00085409, "MEAN_MOTION_DDOT": 0}, "tle": {"line1": "1 66534U 25265U   25351.58336806  .00085409  00000+0  20323-2 0  9996", "line2": "2 66534  43.0004  25.7259 0001219 287.1030 266.9567 15.40651816  5778"}}, "geometry": {"type": "Point", "coordinates": [-165.83099150558257, 8.938315902416349]}}]}